{"fetched_at":"2026-07-17T06:37:47.892Z","source":"https://celestrak.org/NORAD/elements/gp.php?GROUP=iridium-NEXT&FORMAT=JSON","constellation":"iridium","records":[{"OBJECT_NAME":"IRIDIUM 126","OBJECT_ID":"2017-039G","EPOCH":"2026-07-16T10:50:02.952384","CLASSIFICATION_TYPE":"U","MEAN_MOTION":14.34217554,"ECCENTRICITY":0.0002079,"INCLINATION":86.3992,"RA_OF_ASC_NODE":341.4108,"ARG_OF_PERICENTER":91.2057,"MEAN_ANOMALY":268.9377,"EPHEMERIS_TYPE":0,"NORAD_CAT_ID":42809,"ELEMENT_SET_NO":999,"REV_AT_EPOCH":47414,"BSTAR":-0.0000032882,"MEAN_MOTION_DOT":1.1e-7,"MEAN_MOTION_DDOT":0},{"OBJECT_NAME":"IRIDIUM 124","OBJECT_ID":"2017-039H","EPOCH":"2026-07-16T15:45:32.939136","CLASSIFICATION_TYPE":"U","MEAN_MOTION":14.43274634,"ECCENTRICITY":0.0002222,"INCLINATION":86.4483,"RA_OF_ASC_NODE":278.0376,"ARG_OF_PERICENTER":96.7096,"MEAN_ANOMALY":263.4358,"EPHEMERIS_TYPE":0,"NORAD_CAT_ID":42810,"ELEMENT_SET_NO":999,"REV_AT_EPOCH":47936,"BSTAR":0.000048764,"MEAN_MOTION_DOT":0.00000184,"MEAN_MOTION_DDOT":0},{"OBJECT_NAME":"IRIDIUM 128","OBJECT_ID":"2017-039J","EPOCH":"2026-07-16T12:17:10.980960","CLASSIFICATION_TYPE":"U","MEAN_MOTION":14.3421705,"ECCENTRICITY":0.0002256,"INCLINATION":86.3966,"RA_OF_ASC_NODE":12.8862,"ARG_OF_PERICENTER":93.8089,"MEAN_ANOMALY":266.3365,"EPHEMERIS_TYPE":0,"NORAD_CAT_ID":42811,"ELEMENT_SET_NO":999,"REV_AT_EPOCH":47418,"BSTAR":0.000011124,"MEAN_MOTION_DOT":5.1e-7,"MEAN_MOTION_DDOT":0},{"OBJECT_NAME":"IRIDIUM 121","OBJECT_ID":"2017-039K","EPOCH":"2026-07-16T11:17:26.954304","CLASSIFICATION_TYPE":"U","MEAN_MOTION":14.3421773,"ECCENTRICITY":0.0002252,"INCLINATION":86.3994,"RA_OF_ASC_NODE":341.4309,"ARG_OF_PERICENTER":92.9136,"MEAN_ANOMALY":267.2317,"EPHEMERIS_TYPE":0,"NORAD_CAT_ID":42812,"ELEMENT_SET_NO":999,"REV_AT_EPOCH":47402,"BSTAR":0.0000057969,"MEAN_MOTION_DOT":3.6e-7,"MEAN_MOTION_DDOT":0},{"OBJECT_NAME":"IRIDIUM 133","OBJECT_ID":"2017-061A","EPOCH":"2026-07-16T13:02:50.800992","CLASSIFICATION_TYPE":"U","MEAN_MOTION":14.34217326,"ECCENTRICITY":0.0002202,"INCLINATION":86.3969,"RA_OF_ASC_NODE":12.9914,"ARG_OF_PERICENTER":90.9009,"MEAN_ANOMALY":269.2439,"EPHEMERIS_TYPE":0,"NORAD_CAT_ID":42955,"ELEMENT_SET_NO":999,"REV_AT_EPOCH":45898,"BSTAR":0.000009142,"MEAN_MOTION_DOT":4.5e-7,"MEAN_MOTION_DDOT":0},{"OBJECT_NAME":"IRIDIUM 100","OBJECT_ID":"2017-061B","EPOCH":"2026-07-16T12:53:42.916128","CLASSIFICATION_TYPE":"U","MEAN_MOTION":14.34217403,"ECCENTRICITY":0.0002218,"INCLINATION":86.3965,"RA_OF_ASC_NODE":12.9119,"ARG_OF_PERICENTER":90.1682,"MEAN_ANOMALY":269.9768,"EPHEMERIS_TYPE":0,"NORAD_CAT_ID":42956,"ELEMENT_SET_NO":999,"REV_AT_EPOCH":45898,"BSTAR":0.0000085623,"MEAN_MOTION_DOT":4.4e-7,"MEAN_MOTION_DDOT":0},{"OBJECT_NAME":"IRIDIUM 122","OBJECT_ID":"2017-061C","EPOCH":"2026-07-16T12:08:02.531040","CLASSIFICATION_TYPE":"U","MEAN_MOTION":14.34217377,"ECCENTRICITY":0.0002103,"INCLINATION":86.3967,"RA_OF_ASC_NODE":12.9257,"ARG_OF_PERICENTER":90.6183,"MEAN_ANOMALY":269.5254,"EPHEMERIS_TYPE":0,"NORAD_CAT_ID":42957,"ELEMENT_SET_NO":999,"REV_AT_EPOCH":45898,"BSTAR":0.000011173,"MEAN_MOTION_DOT":5.1e-7,"MEAN_MOTION_DDOT":0},{"OBJECT_NAME":"IRIDIUM 129","OBJECT_ID":"2017-061D","EPOCH":"2026-07-16T14:25:02.644320","CLASSIFICATION_TYPE":"U","MEAN_MOTION":14.34217211,"ECCENTRICITY":0.0002116,"INCLINATION":86.3967,"RA_OF_ASC_NODE":12.9531,"ARG_OF_PERICENTER":83.9524,"MEAN_ANOMALY":276.1912,"EPHEMERIS_TYPE":0,"NORAD_CAT_ID":42958,"ELEMENT_SET_NO":999,"REV_AT_EPOCH":45901,"BSTAR":0.0000079646,"MEAN_MOTION_DOT":4.2e-7,"MEAN_MOTION_DDOT":0},{"OBJECT_NAME":"IRIDIUM 119","OBJECT_ID":"2017-061E","EPOCH":"2026-07-16T13:39:22.931424","CLASSIFICATION_TYPE":"U","MEAN_MOTION":14.34216944,"ECCENTRICITY":0.0002089,"INCLINATION":86.3968,"RA_OF_ASC_NODE":12.9621,"ARG_OF_PERICENTER":90.955,"MEAN_ANOMALY":269.1886,"EPHEMERIS_TYPE":0,"NORAD_CAT_ID":42959,"ELEMENT_SET_NO":999,"REV_AT_EPOCH":45902,"BSTAR":0.0000086887,"MEAN_MOTION_DOT":4.4e-7,"MEAN_MOTION_DDOT":0},{"OBJECT_NAME":"IRIDIUM 107","OBJECT_ID":"2017-061F","EPOCH":"2026-07-16T14:06:46.680192","CLASSIFICATION_TYPE":"U","MEAN_MOTION":14.34217448,"ECCENTRICITY":0.0002114,"INCLINATION":86.3969,"RA_OF_ASC_NODE":12.9757,"ARG_OF_PERICENTER":96.9799,"MEAN_ANOMALY":263.1638,"EPHEMERIS_TYPE":0,"NORAD_CAT_ID":42960,"ELEMENT_SET_NO":999,"REV_AT_EPOCH":45903,"BSTAR":0.00001074,"MEAN_MOTION_DOT":5e-7,"MEAN_MOTION_DDOT":0},{"OBJECT_NAME":"IRIDIUM 132","OBJECT_ID":"2017-061G","EPOCH":"2026-07-16T12:35:26.869056","CLASSIFICATION_TYPE":"U","MEAN_MOTION":14.3421678,"ECCENTRICITY":0.0002179,"INCLINATION":86.3966,"RA_OF_ASC_NODE":12.9815,"ARG_OF_PERICENTER":90.5693,"MEAN_ANOMALY":269.5752,"EPHEMERIS_TYPE":0,"NORAD_CAT_ID":42961,"ELEMENT_SET_NO":999,"REV_AT_EPOCH":45902,"BSTAR":0.0000062326,"MEAN_MOTION_DOT":3.7e-7,"MEAN_MOTION_DDOT":0},{"OBJECT_NAME":"IRIDIUM 136","OBJECT_ID":"2017-061H","EPOCH":"2026-07-16T13:21:06.903360","CLASSIFICATION_TYPE":"U","MEAN_MOTION":14.34217398,"ECCENTRICITY":0.0002231,"INCLINATION":86.3968,"RA_OF_ASC_NODE":12.975,"ARG_OF_PERICENTER":89.7183,"MEAN_ANOMALY":270.4269,"EPHEMERIS_TYPE":0,"NORAD_CAT_ID":42962,"ELEMENT_SET_NO":999,"REV_AT_EPOCH":45904,"BSTAR":0.0000083199,"MEAN_MOTION_DOT":4.3e-7,"MEAN_MOTION_DDOT":0},{"OBJECT_NAME":"IRIDIUM 139","OBJECT_ID":"2017-061J","EPOCH":"2026-07-16T13:30:14.973120","CLASSIFICATION_TYPE":"U","MEAN_MOTION":14.34217371,"ECCENTRICITY":0.0002244,"INCLINATION":86.397,"RA_OF_ASC_NODE":13.0347,"ARG_OF_PERICENTER":92.3978,"MEAN_ANOMALY":267.7474,"EPHEMERIS_TYPE":0,"NORAD_CAT_ID":42963,"ELEMENT_SET_NO":999,"REV_AT_EPOCH":45905,"BSTAR":0.000010184,"MEAN_MOTION_DOT":4.8e-7,"MEAN_MOTION_DDOT":0},{"OBJECT_NAME":"IRIDIUM 125","OBJECT_ID":"2017-061K","EPOCH":"2026-07-16T13:11:58.905312","CLASSIFICATION_TYPE":"U","MEAN_MOTION":14.34217612,"ECCENTRICITY":0.0001658,"INCLINATION":86.3971,"RA_OF_ASC_NODE":13.1017,"ARG_OF_PERICENTER":93.5945,"MEAN_ANOMALY":266.544,"EPHEMERIS_TYPE":0,"NORAD_CAT_ID":42964,"ELEMENT_SET_NO":999,"REV_AT_EPOCH":45906,"BSTAR":0.0000071965,"MEAN_MOTION_DOT":4e-7,"MEAN_MOTION_DDOT":0},{"OBJECT_NAME":"IRIDIUM 135","OBJECT_ID":"2017-083A","EPOCH":"2026-07-16T14:15:11.185344","CLASSIFICATION_TYPE":"U","MEAN_MOTION":14.34218122,"ECCENTRICITY":0.0002227,"INCLINATION":86.3986,"RA_OF_ASC_NODE":309.7233,"ARG_OF_PERICENTER":94.2239,"MEAN_ANOMALY":265.9211,"EPHEMERIS_TYPE":0,"NORAD_CAT_ID":43070,"ELEMENT_SET_NO":999,"REV_AT_EPOCH":44836,"BSTAR":0.000018369,"MEAN_MOTION_DOT":7.1e-7,"MEAN_MOTION_DDOT":0},{"OBJECT_NAME":"IRIDIUM 138","OBJECT_ID":"2017-083B","EPOCH":"2026-07-16T13:11:14.985600","CLASSIFICATION_TYPE":"U","MEAN_MOTION":14.34218955,"ECCENTRICITY":0.0002061,"INCLINATION":86.4,"RA_OF_ASC_NODE":309.4419,"ARG_OF_PERICENTER":92.6647,"MEAN_ANOMALY":267.4784,"EPHEMERIS_TYPE":0,"NORAD_CAT_ID":43071,"ELEMENT_SET_NO":999,"REV_AT_EPOCH":44834,"BSTAR":0.000042349,"MEAN_MOTION_DOT":0.00000138,"MEAN_MOTION_DDOT":0}]}
