IRIDIUM 126             
1 42809U 17039G   26197.45142306  .00000011  00000+0 -32882-5 0  9993
2 42809  86.3992 341.4108 0002079  91.2057 268.9377 14.34217554474143
IRIDIUM 124             
1 42810U 17039H   26197.65663124  .00000184  00000+0  48764-4 0  9998
2 42810  86.4483 278.0376 0002222  96.7096 263.4358 14.43274634479366
IRIDIUM 128             
1 42811U 17039J   26197.51193265  .00000051  00000+0  11124-4 0  9991
2 42811  86.3966  12.8862 0002256  93.8089 266.3365 14.34217050474187
IRIDIUM 121             
1 42812U 17039K   26197.47045086  .00000036  00000+0  57969-5 0  9995
2 42812  86.3994 341.4309 0002252  92.9136 267.2317 14.34217730474020
IRIDIUM 133             
1 42955U 17061A   26197.54364353  .00000045  00000+0  91420-5 0  9997
2 42955  86.3969  12.9914 0002202  90.9009 269.2439 14.34217326458989
IRIDIUM 100             
1 42956U 17061B   26197.53730227  .00000044  00000+0  85623-5 0  9991
2 42956  86.3965  12.9119 0002218  90.1682 269.9768 14.34217403458987
IRIDIUM 122             
1 42957U 17061C   26197.50558485  .00000051  00000+0  11173-4 0  9999
2 42957  86.3967  12.9257 0002103  90.6183 269.5254 14.34217377458983
IRIDIUM 129             
1 42958U 17061D   26197.60072505  .00000042  00000+0  79646-5 0  9995
2 42958  86.3967  12.9531 0002116  83.9524 276.1912 14.34217211459014
IRIDIUM 119             
1 42959U 17061E   26197.56901541  .00000044  00000+0  86887-5 0  9999
2 42959  86.3968  12.9621 0002089  90.9550 269.1886 14.34216944459027
IRIDIUM 107             
1 42960U 17061F   26197.58804028  .00000050  00000+0  10740-4 0  9996
2 42960  86.3969  12.9757 0002114  96.9799 263.1638 14.34217448459030
IRIDIUM 132             
1 42961U 17061G   26197.52461654  .00000037  00000+0  62326-5 0  9998
2 42961  86.3966  12.9815 0002179  90.5693 269.5752 14.34216780459021
IRIDIUM 136             
1 42962U 17061H   26197.55632990  .00000043  00000+0  83199-5 0  9993
2 42962  86.3968  12.9750 0002231  89.7183 270.4269 14.34217398459047
IRIDIUM 139             
1 42963U 17061J   26197.56267330  .00000048  00000+0  10184-4 0  9995
2 42963  86.3970  13.0347 0002244  92.3978 267.7474 14.34217371459050
IRIDIUM 125             
1 42964U 17061K   26197.54998733  .00000040  00000+0  71965-5 0  9999
2 42964  86.3971  13.1017 0001658  93.5945 266.5440 14.34217612459061
IRIDIUM 135             
1 43070U 17083A   26197.59387946  .00000071  00000+0  18369-4 0  9997
2 43070  86.3986 309.7233 0002227  94.2239 265.9211 14.34218122448364
IRIDIUM 138             
1 43071U 17083B   26197.54947900  .00000138  00000+0  42349-4 0  9994
2 43071  86.4000 309.4419 0002061  92.6647 267.4784 14.34218955448341
